{
  "type": "FeatureCollection",
  "features": [
    {
      "type": "Feature",
      "properties": {
        "norad_id": 34589,
        "name": "COSMOS 2251 DEB",
        "group": "cosmos-2251-debris",
        "lat": -62.10461073896267,
        "lon": -103.74023437929684,
        "alt_km": 971.1594552747665,
        "timestamp": "2025-12-20T05:41:50.426022+00:00",
        "meta_object_name": "COSMOS 2251 DEB",
        "meta_object_id": "1993-036WB",
        "meta_epoch": "2025-12-19T13:38:04.639200",
        "meta_mean_motion": 13.86059262,
        "meta_eccentricity": 0.0252128,
        "meta_inclination": 73.925,
        "meta_ra_of_asc_node": 44.3965,
        "meta_arg_of_pericenter": 346.3595,
        "meta_mean_anomaly": 165.0467,
        "meta_ephemeris_type": 0,
        "meta_classification_type": "U",
        "meta_norad_cat_id": 34589,
        "meta_element_set_no": 999,
        "meta_rev_at_epoch": 84806,
        "meta_bstar": 0.00027367,
        "meta_mean_motion_dot": 3.8e-06,
        "meta_mean_motion_ddot": 0,
        "tle_line1": "1 34589U 93036WB  25353.56810925  .00000380  00000+0  27367-3 0  9992",
        "tle_line2": "2 34589  73.9250  44.3965 0252128 346.3595 165.0467 13.86059262848060"
      },
      "geometry": {
        "type": "Point",
        "coordinates": [
          -103.74023437929684,
          -62.10461073896267
        ]
      }
    },
    {
      "type": "Feature",
      "properties": {
        "norad_id": 34590,
        "name": "COSMOS 2251 DEB",
        "group": "cosmos-2251-debris",
        "lat": -65.9059636679227,
        "lon": -91.40656726855917,
        "alt_km": 757.3425554052865,
        "timestamp": "2025-12-20T05:41:50.426033+00:00",
        "meta_object_name": "COSMOS 2251 DEB",
        "meta_object_id": "1993-036WC",
        "meta_epoch": "2025-12-19T05:33:46.179072",
        "meta_mean_motion": 14.5483298,
        "meta_eccentricity": 0.0067997,
        "meta_inclination": 74.0441,
        "meta_ra_of_asc_node": 310.2692,
        "meta_arg_of_pericenter": 77.9732,
        "meta_mean_anomaly": 346.1753,
        "meta_ephemeris_type": 0,
        "meta_classification_type": "U",
        "meta_norad_cat_id": 34590,
        "meta_element_set_no": 999,
        "meta_rev_at_epoch": 89215,
        "meta_bstar": 0.00010011,
        "meta_mean_motion_dot": 4.13e-06,
        "meta_mean_motion_ddot": 0,
        "tle_line1": "1 34590U 93036WC  25353.23178448  .00000413  00000+0  10011-3 0  9990",
        "tle_line2": "2 34590  74.0441 310.2692 0067997  77.9732 346.1753 14.54832980892157"
      },
      "geometry": {
        "type": "Point",
        "coordinates": [
          -91.40656726855917,
          -65.9059636679227
        ]
      }
    },
    {
      "type": "Feature",
      "properties": {
        "norad_id": 34609,
        "name": "COSMOS 2251 DEB",
        "group": "cosmos-2251-debris",
        "lat": -61.628109271682334,
        "lon": -54.25488461416156,
        "alt_km": 780.4398140754929,
        "timestamp": "2025-12-20T05:41:50.426043+00:00",
        "meta_object_name": "COSMOS 2251 DEB",
        "meta_object_id": "1993-036WE",
        "meta_epoch": "2025-12-19T06:43:05.056032",
        "meta_mean_motion": 14.21814448,
        "meta_eccentricity": 0.0145469,
        "meta_inclination": 73.7337,
        "meta_ra_of_asc_node": 94.7686,
        "meta_arg_of_pericenter": 313.2418,
        "meta_mean_anomaly": 75.7069,
        "meta_ephemeris_type": 0,
        "meta_classification_type": "U",
        "meta_norad_cat_id": 34609,
        "meta_element_set_no": 999,
        "meta_rev_at_epoch": 86725,
        "meta_bstar": 0.00051747,
        "meta_mean_motion_dot": 1.24e-05,
        "meta_mean_motion_ddot": 0,
        "tle_line1": "1 34609U 93036WE  25353.27991963  .00001240  00000+0  51747-3 0  9990",
        "tle_line2": "2 34609  73.7337  94.7686 0145469 313.2418  75.7069 14.21814448867254"
      },
      "geometry": {
        "type": "Point",
        "coordinates": [
          -54.25488461416156,
          -61.628109271682334
        ]
      }
    },
    {
      "type": "Feature",
      "properties": {
        "norad_id": 34610,
        "name": "COSMOS 2251 DEB",
        "group": "cosmos-2251-debris",
        "lat": 15.20068931413292,
        "lon": -106.36145180577073,
        "alt_km": 738.9874563938511,
        "timestamp": "2025-12-20T05:41:50.426053+00:00",
        "meta_object_name": "COSMOS 2251 DEB",
        "meta_object_id": "1993-036WF",
        "meta_epoch": "2025-12-16T19:43:22.866816",
        "meta_mean_motion": 14.07083274,
        "meta_eccentricity": 0.01805005,
        "meta_inclination": 74.0182,
        "meta_ra_of_asc_node": 255.1605,
        "meta_arg_of_pericenter": 24.866,
        "meta_mean_anomaly": 336.104,
        "meta_ephemeris_type": 0,
        "meta_classification_type": "U",
        "meta_norad_cat_id": 34610,
        "meta_element_set_no": 999,
        "meta_rev_at_epoch": 85617,
        "meta_bstar": 0.0012903668,
        "meta_mean_motion_dot": 2.479e-05,
        "meta_mean_motion_ddot": 0,
        "tle_line1": "1 34610U 93036WF  25350.82179244  .00002479  00000+0  12904-2 0  9996",
        "tle_line2": "2 34610  74.0182 255.1605 0180500  24.8660 336.1040 14.07083274856172"
      },
      "geometry": {
        "type": "Point",
        "coordinates": [
          -106.36145180577073,
          15.20068931413292
        ]
      }
    },
    {
      "type": "Feature",
      "properties": {
        "norad_id": 34611,
        "name": "COSMOS 2251 DEB",
        "group": "cosmos-2251-debris",
        "lat": -41.98289828062022,
        "lon": 71.546653158402,
        "alt_km": 683.731805055033,
        "timestamp": "2025-12-20T05:41:50.426064+00:00",
        "meta_object_name": "COSMOS 2251 DEB",
        "meta_object_id": "1993-036WG",
        "meta_epoch": "2025-12-19T05:29:00.780000",
        "meta_mean_motion": 14.6961717,
        "meta_eccentricity": 0.0021989,
        "meta_inclination": 74.0542,
        "meta_ra_of_asc_node": 88.4074,
        "meta_arg_of_pericenter": 127.6644,
        "meta_mean_anomaly": 252.8321,
        "meta_ephemeris_type": 0,
        "meta_classification_type": "U",
        "meta_norad_cat_id": 34611,
        "meta_element_set_no": 999,
        "meta_rev_at_epoch": 88486,
        "meta_bstar": 0.001018,
        "meta_mean_motion_dot": 6.048e-05,
        "meta_mean_motion_ddot": 0,
        "tle_line1": "1 34611U 93036WG  25353.22848125  .00006048  00000+0  10180-2 0  9995",
        "tle_line2": "2 34611  74.0542  88.4074 0021989 127.6644 252.8321 14.69617170884868"
      },
      "geometry": {
        "type": "Point",
        "coordinates": [
          71.546653158402,
          -41.98289828062022
        ]
      }
    },
    {
      "type": "Feature",
      "properties": {
        "norad_id": 34613,
        "name": "COSMOS 2251 DEB",
        "group": "cosmos-2251-debris",
        "lat": -38.829628540006354,
        "lon": -108.44684351850083,
        "alt_km": 865.7046561132975,
        "timestamp": "2025-12-20T05:41:50.426074+00:00",
        "meta_object_name": "COSMOS 2251 DEB",
        "meta_object_id": "1993-036WJ",
        "meta_epoch": "2025-12-19T05:20:33.740736",
        "meta_mean_motion": 14.26470363,
        "meta_eccentricity": 0.0110345,
        "meta_inclination": 73.9636,
        "meta_ra_of_asc_node": 266.7803,
        "meta_arg_of_pericenter": 96.9169,
        "meta_mean_anomaly": 54.2263,
        "meta_ephemeris_type": 0,
        "meta_classification_type": "U",
        "meta_norad_cat_id": 34613,
        "meta_element_set_no": 999,
        "meta_rev_at_epoch": 86555,
        "meta_bstar": 0.00082714,
        "meta_mean_motion_dot": 2.099e-05,
        "meta_mean_motion_ddot": 0,
        "tle_line1": "1 34613U 93036WJ  25353.22261274  .00002099  00000+0  82714-3 0  9996",
        "tle_line2": "2 34613  73.9636 266.7803 0110345  96.9169  54.2263 14.26470363865556"
      },
      "geometry": {
        "type": "Point",
        "coordinates": [
          -108.44684351850083,
          -38.829628540006354
        ]
      }
    },
    {
      "type": "Feature",
      "properties": {
        "norad_id": 34614,
        "name": "COSMOS 2251 DEB",
        "group": "cosmos-2251-debris",
        "lat": -2.5602109497201533,
        "lon": -30.348415470512673,
        "alt_km": 717.7465416464656,
        "timestamp": "2025-12-20T05:41:50.426084+00:00",
        "meta_object_name": "COSMOS 2251 DEB",
        "meta_object_id": "1993-036WK",
        "meta_epoch": "2025-12-18T23:21:59.727744",
        "meta_mean_motion": 14.17670739,
        "meta_eccentricity": 0.0197223,
        "meta_inclination": 73.8822,
        "meta_ra_of_asc_node": 332.666,
        "meta_arg_of_pericenter": 325.6345,
        "meta_mean_anomaly": 63.1604,
        "meta_ephemeris_type": 0,
        "meta_classification_type": "U",
        "meta_norad_cat_id": 34614,
        "meta_element_set_no": 999,
        "meta_rev_at_epoch": 84855,
        "meta_bstar": 0.0046815228,
        "meta_mean_motion_dot": 0.00011531,
        "meta_mean_motion_ddot": 0,
        "tle_line1": "1 34614U 93036WK  25352.97360796  .00011531  00000+0  46815-2 0  9999",
        "tle_line2": "2 34614  73.8822 332.6660 0197223 325.6345  63.1604 14.17670739848553"
      },
      "geometry": {
        "type": "Point",
        "coordinates": [
          -30.348415470512673,
          -2.5602109497201533
        ]
      }
    }
  ]
}